STARLINK-5696           
1 55484U 23015AM  26196.39904328  .00000419  00000+0  24759-4 0  9993
2 55484  43.0043 338.7665 0001846 300.9705  59.0965 15.27577057190126
STARLINK-5695           
1 55485U 23015AN  26196.46186324  .00000883  00000+0  41618-4 0  9998
2 55485  43.0041 338.3771 0002031 273.1152  86.9467 15.27572156190135
STARLINK-5704           
1 55486U 23015AP  26195.73875182 -.00000354  00000+0 -33175-5 0  9990
2 55486  43.0059 342.3630 0002177 274.6520  85.4083 15.27571793190022
STARLINK-5701           
1 55487U 23015AQ  26196.44644028  .00000287  00000+0  19951-4 0  9991
2 55487  43.0051 338.2650 0001123 243.0098 117.0639 15.27567776190138
STARLINK-5706           
1 55488U 23015AR  26196.44388495  .00000103  00000+0  13273-4 0  9993
2 55488  43.0049 338.2374 0001120 249.5233 110.5499 15.27561579190135
STARLINK-5371           
1 55489U 23015AS  26196.45029641 -.00000655  00000+0 -14276-4 0  9998
2 55489  42.9998 338.2883 0001450 217.6196 142.4554 15.27577798190138
STARLINK-5373           
1 55490U 23015AT  26196.42459276 -.00000255  00000+0  25014-6 0  9997
2 55490  43.0029 338.0874 0001175 260.9765  99.0954 15.27576882190136
STARLINK-5364           
1 55491U 23015AU  26196.37944417 -.00000124  00000+0  50065-5 0  9996
2 55491  43.0028 320.2815 0000858 250.7817 109.2942 15.27575368190337
STARLINK-5013           
1 55492U 23015AV  26196.44900613  .00000078  00000+0  12361-4 0  9998
2 55492  43.0054 338.2682 0001731 276.6392  83.4262 15.27574105190138
STARLINK-5362           
1 55493U 23015AW  26196.42973760 -.00000376  00000+0 -41521-5 0  9994
2 55493  43.0032 338.1342 0000915 258.6009 101.4740 15.27573871190136
STARLINK-5344           
1 55494U 23015AX  26196.45158055  .00000012  00000+0  99831-5 0  9992
2 55494  43.0066 338.2972 0001911 271.2886  88.7747 15.27575767190135
STARLINK-5100           
1 55495U 23015AY  26196.64741837  .00000486  00000+0  27196-4 0  9999
2 55495  43.0039 318.8708 0001323 275.3307  84.7393 15.27573970190370
STARLINK-5363           
1 55497U 23015BA  26196.45542864  .00000777  00000+0  37752-4 0  9991
2 55497  43.0041 338.3165 0001314 245.1186 114.9529 15.27576354190139
STARLINK-5365           
1 55498U 23015BB  26196.46572094  .00001084  00000+0  48920-4 0  9992
2 55498  43.0053 338.3947 0001731 270.8257  89.2396 15.27567575190139
STARLINK-5366           
1 55499U 23015BC  26196.41946251  .00001164  00000+0  51816-4 0  9995
2 55499  43.0017 338.0484 0001150 270.4014  89.6706 15.27570230190888
STARLINK-5141           
1 55500U 23015BD  26196.65545388  .00002439  00000+0  98160-4 0  9999
2 55500  43.0040 337.2426 0001778 273.4471  86.6177 15.27565108190168
STARLINK-5367           
1 55501U 23015BE  26196.40803720  .00000158  00000+0  15272-4 0  9999
2 55501  43.0033 338.8104 0001438 268.4168  91.6519 15.27576661190129
STARLINK-5749           
1 55569U 23020A   26196.47999612  .00000562  00000+0  29946-4 0  9994
2 55569  43.0014   7.1764 0001400 276.0702  83.9990 15.27578197189488
STARLINK-5737           
1 55570U 23020B   26196.46641279  .00012005  00000+0  44563-3 0  9994
2 55570  43.0045   3.6733 0001501 267.9589  92.1090 15.27538562188456
STARLINK-5739           
1 55571U 23020C   26196.45944088 -.00000378  00000+0 -42120-5 0  9999
2 55571  43.0035   7.0304 0001221 294.6099  65.4626 15.27584301188416
STARLINK-5732           
1 55572U 23020D   26196.45686786 -.00000487  00000+0 -81567-5 0  9997
2 55572  43.0029   7.0069 0001396 226.7173 133.3563 15.27575072188410
STARLINK-5738           
1 55573U 23020E   26196.45301244  .00000075  00000+0  12243-4 0  9996
2 55573  43.0055   6.9825 0001450 278.1104  81.9584 15.27577204188414
STARLINK-5747           
1 55574U 23020F   26196.48770421  .00000802  00000+0  38664-4 0  9990
2 55574  43.0016   7.2363 0001532 255.3546 104.7136 15.27577078188417
STARLINK-5745           
1 55575U 23020G   26196.59663930  .00004058  00000+0  15690-3 0  9999
2 55575  43.0052   6.3382 0001614 264.8711  95.1956 15.27579430188438
STARLINK-5751           
1 55576U 23020H   26196.41048481  .00000003  00000+0  96474-5 0  9996
2 55576  43.0013 338.1127 0001067 269.1166  90.9563 15.27575974188743
STARLINK-5752           
1 55577U 23020J   26196.47790344 -.00000185  00000+0  28144-5 0  9996
2 55577  43.0032   3.6722 0001584 257.9677 102.0997 15.27580306188455
STARLINK-5754           
1 55579U 23020L   26196.45736600  .00000515  00000+0  28261-4 0  9996
2 55579  43.0050   3.6009 0001454 265.1497  94.9189 15.27578580188455
STARLINK-5757           
1 55580U 23020M   26196.42076743 -.00000377  00000+0 -41970-5 0  9991
2 55580  43.0013 338.1913 0000960 258.1019 101.9725 15.27573449188745
STARLINK-5753           
1 55581U 23020N   26196.46536970 -.00000133  00000+0  46948-5 0  9998
2 55581  43.0049  10.4820 0001068 268.1019  91.9711 15.27576630188370
STARLINK-5741           
1 55582U 23020P   26196.48179356 -.00000622  00000+0 -13054-4 0  9997
2 55582  43.0053 352.5192 0001757 270.0424  90.0226 15.27575177188584
