OBJECT_NAME,OBJECT_ID,EPOCH,MEAN_MOTION,ECCENTRICITY,INCLINATION,RA_OF_ASC_NODE,ARG_OF_PERICENTER,MEAN_ANOMALY,EPHEMERIS_TYPE,CLASSIFICATION_TYPE,NORAD_CAT_ID,ELEMENT_SET_NO,REV_AT_EPOCH,BSTAR,MEAN_MOTION_DOT,MEAN_MOTION_DDOT
STARLINK-5696,2023-015AM,2026-07-15T09:34:37.339392,15.27577057,.00018465,43.0043,338.7665,300.9705,59.0965,0,U,55484,999,19012,.24758736E-4,.419E-5,0
STARLINK-5695,2023-015AN,2026-07-15T11:05:04.983936,15.27572156,.00020311,43.0041,338.3771,273.1152,86.9467,0,U,55485,999,19013,.41617895E-4,.883E-5,0
STARLINK-5704,2023-015AP,2026-07-14T17:43:48.157248,15.27571793,.00021778,43.0059,342.3630,274.6520,85.4083,0,U,55486,999,19002,-.3317544E-5,-.354E-5,0
STARLINK-5701,2023-015AQ,2026-07-15T10:42:52.440192,15.27567776,.00011233,43.0051,338.2650,243.0098,117.0639,0,U,55487,999,19013,.19951454E-4,.287E-5,0
STARLINK-5706,2023-015AR,2026-07-15T10:39:11.659680,15.27561579,.00011203,43.0049,338.2374,249.5233,110.5499,0,U,55488,999,19013,.13272838E-4,.103E-5,0
STARLINK-5371,2023-015AS,2026-07-15T10:48:25.609824,15.27577798,.00014505,42.9998,338.2883,217.6196,142.4554,0,U,55489,999,19013,-.14276261E-4,-.655E-5,0
STARLINK-5373,2023-015AT,2026-07-15T10:11:24.814464,15.27576882,.00011757,43.0029,338.0874,260.9765,99.0954,0,U,55490,999,19013,.25014E-6,-.255E-5,0
STARLINK-5364,2023-015AU,2026-07-15T09:06:23.976288,15.27575368,.0000858,43.0028,320.2815,250.7817,109.2942,0,U,55491,999,19033,.5006507E-5,-.124E-5,0
STARLINK-5013,2023-015AV,2026-07-15T10:46:34.129632,15.27574105,.00017311,43.0054,338.2682,276.6392,83.4262,0,U,55492,999,19013,.12360931E-4,.78E-6,0
STARLINK-5362,2023-015AW,2026-07-15T10:18:49.328640,15.27573871,.00009157,43.0032,338.1342,258.6009,101.4740,0,U,55493,999,19013,-.4152141E-5,-.376E-5,0
STARLINK-5344,2023-015AX,2026-07-15T10:50:16.559520,15.27575767,.00019115,43.0066,338.2972,271.2886,88.7747,0,U,55494,999,19013,.9983065E-5,.12E-6,0
STARLINK-5100,2023-015AY,2026-07-15T15:32:16.947168,15.27573970,.00013234,43.0039,318.8708,275.3307,84.7393,0,U,55495,999,19037,.27195852E-4,.486E-5,0
STARLINK-5363,2023-015BA,2026-07-15T10:55:49.034496,15.27576354,.00013144,43.0041,338.3165,245.1186,114.9529,0,U,55497,999,19013,.37752189E-4,.777E-5,0
STARLINK-5365,2023-015BB,2026-07-15T11:10:38.289216,15.27567575,.0001731,43.0053,338.3947,270.8257,89.2396,0,U,55498,999,19013,.48919522E-4,.1084E-4,0
STARLINK-5366,2023-015BC,2026-07-15T10:04:01.560864,15.27570230,.00011504,43.0017,338.0484,270.4014,89.6706,0,U,55499,999,19088,.51816324E-4,.1164E-4,0
STARLINK-5141,2023-015BD,2026-07-15T15:43:51.215232,15.27565108,.00017783,43.0040,337.2426,273.4471,86.6177,0,U,55500,999,19016,.98159729E-4,.2439E-4,0
STARLINK-5367,2023-015BE,2026-07-15T09:47:34.414080,15.27576661,.00014381,43.0033,338.8104,268.4168,91.6519,0,U,55501,999,19012,.15272477E-4,.158E-5,0
STARLINK-5749,2023-020A,2026-07-15T11:31:11.664768,15.27578197,.00014007,43.0014,7.1764,276.0702,83.9990,0,U,55569,999,18948,.2994636E-4,.562E-5,0
STARLINK-5737,2023-020B,2026-07-15T11:11:38.065056,15.27538562,.00015015,43.0045,3.6733,267.9589,92.1090,0,U,55570,999,18845,.44562693E-3,.12005E-3,0
STARLINK-5739,2023-020C,2026-07-15T11:01:35.692032,15.27584301,.00012219,43.0035,7.0304,294.6099,65.4626,0,U,55571,999,18841,-.4212035E-5,-.378E-5,0
STARLINK-5732,2023-020D,2026-07-15T10:57:53.383104,15.27575072,.00013968,43.0029,7.0069,226.7173,133.3563,0,U,55572,999,18841,-.8156709E-5,-.487E-5,0
STARLINK-5738,2023-020E,2026-07-15T10:52:20.274816,15.27577204,.00014501,43.0055,6.9825,278.1104,81.9584,0,U,55573,999,18841,.12242569E-4,.75E-6,0
STARLINK-5747,2023-020F,2026-07-15T11:42:17.643744,15.27577078,.00015329,43.0016,7.2363,255.3546,104.7136,0,U,55574,999,18841,.38664308E-4,.802E-5,0
STARLINK-5745,2023-020G,2026-07-15T14:19:09.635520,15.27579430,.00016146,43.0052,6.3382,264.8711,95.1956,0,U,55575,999,18843,.15689711E-3,.4058E-4,0
STARLINK-5751,2023-020H,2026-07-15T09:51:05.887584,15.27575974,.00010675,43.0013,338.1127,269.1166,90.9563,0,U,55576,999,18874,.964742E-5,.3E-7,0
STARLINK-5752,2023-020J,2026-07-15T11:28:10.857216,15.27580306,.00015845,43.0032,3.6722,257.9677,102.0997,0,U,55577,999,18845,.2814409E-5,-.185E-5,0
STARLINK-5754,2023-020L,2026-07-15T10:58:36.422400,15.27578580,.00014544,43.0050,3.6009,265.1497,94.9189,0,U,55579,999,18845,.28260524E-4,.515E-5,0
STARLINK-5757,2023-020M,2026-07-15T10:05:54.305952,15.27573449,.00009608,43.0013,338.1913,258.1019,101.9725,0,U,55580,999,18874,-.4197001E-5,-.377E-5,0
STARLINK-5753,2023-020N,2026-07-15T11:10:07.942080,15.27576630,.00010688,43.0049,10.4820,268.1019,91.9711,0,U,55581,999,18837,.4694782E-5,-.133E-5,0
STARLINK-5741,2023-020P,2026-07-15T11:33:46.963584,15.27575177,.00017572,43.0053,352.5192,270.0424,90.0226,0,U,55582,999,18858,-.13054479E-4,-.622E-5,0
